{"fetched_at":"2026-07-19T07:04:50.778Z","source":"https://celestrak.org/NORAD/elements/gp.php?GROUP=planet&FORMAT=JSON","constellation":"superdove","records":[{"OBJECT_NAME":"FLOCK 4BE-17","OBJECT_ID":"2024-149AA","EPOCH":"2026-07-18T19:04:40.755360","CLASSIFICATION_TYPE":"U","MEAN_MOTION":15.40637686,"ECCENTRICITY":0.0004554,"INCLINATION":97.3762,"RA_OF_ASC_NODE":283.4317,"ARG_OF_PERICENTER":137.3085,"MEAN_ANOMALY":222.8516,"EPHEMERIS_TYPE":0,"NORAD_CAT_ID":60492,"ELEMENT_SET_NO":999,"REV_AT_EPOCH":10712,"BSTAR":0.00022547,"MEAN_MOTION_DOT":0.00009104,"MEAN_MOTION_DDOT":0},{"OBJECT_NAME":"FLOCK 4BE-22","OBJECT_ID":"2024-149AC","EPOCH":"2026-07-18T17:56:47.497344","CLASSIFICATION_TYPE":"U","MEAN_MOTION":15.42056124,"ECCENTRICITY":0.0004983,"INCLINATION":97.372,"RA_OF_ASC_NODE":283.6272,"ARG_OF_PERICENTER":144.1008,"MEAN_ANOMALY":216.0574,"EPHEMERIS_TYPE":0,"NORAD_CAT_ID":60494,"ELEMENT_SET_NO":999,"REV_AT_EPOCH":10716,"BSTAR":0.0002274,"MEAN_MOTION_DOT":0.00009628,"MEAN_MOTION_DDOT":0},{"OBJECT_NAME":"FLOCK 4BE-34","OBJECT_ID":"2024-149AD","EPOCH":"2026-07-18T18:22:12.247392","CLASSIFICATION_TYPE":"U","MEAN_MOTION":15.42016111,"ECCENTRICITY":0.0005095,"INCLINATION":97.3775,"RA_OF_ASC_NODE":284.4872,"ARG_OF_PERICENTER":151.7128,"MEAN_ANOMALY":208.4397,"EPHEMERIS_TYPE":0,"NORAD_CAT_ID":60495,"ELEMENT_SET_NO":999,"REV_AT_EPOCH":10719,"BSTAR":0.00020021,"MEAN_MOTION_DOT":0.00008454,"MEAN_MOTION_DDOT":0},{"OBJECT_NAME":"FLOCK 4BE-32","OBJECT_ID":"2024-149AF","EPOCH":"2026-07-18T18:38:39.383808","CLASSIFICATION_TYPE":"U","MEAN_MOTION":15.43162756,"ECCENTRICITY":0.0005217,"INCLINATION":97.371,"RA_OF_ASC_NODE":284.0673,"ARG_OF_PERICENTER":148.6595,"MEAN_ANOMALY":211.4965,"EPHEMERIS_TYPE":0,"NORAD_CAT_ID":60497,"ELEMENT_SET_NO":999,"REV_AT_EPOCH":10720,"BSTAR":0.00024629,"MEAN_MOTION_DOT":0.00010833,"MEAN_MOTION_DDOT":0},{"OBJECT_NAME":"FLOCK 4BE-11","OBJECT_ID":"2024-149AK","EPOCH":"2026-07-18T18:07:14.852064","CLASSIFICATION_TYPE":"U","MEAN_MOTION":15.43952981,"ECCENTRICITY":0.0005256,"INCLINATION":97.3689,"RA_OF_ASC_NODE":284.3052,"ARG_OF_PERICENTER":148.8353,"MEAN_ANOMALY":211.3207,"EPHEMERIS_TYPE":0,"NORAD_CAT_ID":60501,"ELEMENT_SET_NO":999,"REV_AT_EPOCH":10722,"BSTAR":0.00021585,"MEAN_MOTION_DOT":0.00009738,"MEAN_MOTION_DDOT":0},{"OBJECT_NAME":"FLOCK 4BE-24","OBJECT_ID":"2024-149AP","EPOCH":"2026-07-18T19:16:18.990048","CLASSIFICATION_TYPE":"U","MEAN_MOTION":15.44188823,"ECCENTRICITY":0.0005285,"INCLINATION":97.3701,"RA_OF_ASC_NODE":284.6245,"ARG_OF_PERICENTER":159.1381,"MEAN_ANOMALY":201.0084,"EPHEMERIS_TYPE":0,"NORAD_CAT_ID":60505,"ELEMENT_SET_NO":999,"REV_AT_EPOCH":10724,"BSTAR":0.00026315,"MEAN_MOTION_DOT":0.0001199,"MEAN_MOTION_DDOT":0},{"OBJECT_NAME":"FLOCK 4BE-29","OBJECT_ID":"2024-149AT","EPOCH":"2026-07-18T18:58:29.097120","CLASSIFICATION_TYPE":"U","MEAN_MOTION":15.45666248,"ECCENTRICITY":0.0003838,"INCLINATION":97.3804,"RA_OF_ASC_NODE":286.1681,"ARG_OF_PERICENTER":167.5223,"MEAN_ANOMALY":192.6121,"EPHEMERIS_TYPE":0,"NORAD_CAT_ID":60509,"ELEMENT_SET_NO":999,"REV_AT_EPOCH":10729,"BSTAR":0.00053151,"MEAN_MOTION_DOT":0.00025598,"MEAN_MOTION_DDOT":0},{"OBJECT_NAME":"FLOCK 4BE-2","OBJECT_ID":"2024-149AV","EPOCH":"2026-07-18T19:03:54.933120","CLASSIFICATION_TYPE":"U","MEAN_MOTION":15.56201399,"ECCENTRICITY":0.0005386,"INCLINATION":97.3817,"RA_OF_ASC_NODE":288.0752,"ARG_OF_PERICENTER":163.1657,"MEAN_ANOMALY":196.9778,"EPHEMERIS_TYPE":0,"NORAD_CAT_ID":60511,"ELEMENT_SET_NO":999,"REV_AT_EPOCH":10741,"BSTAR":0.00059512,"MEAN_MOTION_DOT":0.00041769,"MEAN_MOTION_DDOT":0},{"OBJECT_NAME":"FLOCK 4BE-13","OBJECT_ID":"2024-149AW","EPOCH":"2026-07-18T18:03:48.563424","CLASSIFICATION_TYPE":"U","MEAN_MOTION":15.42675398,"ECCENTRICITY":0.000534,"INCLINATION":97.371,"RA_OF_ASC_NODE":284.5088,"ARG_OF_PERICENTER":145.6324,"MEAN_ANOMALY":214.527,"EPHEMERIS_TYPE":0,"NORAD_CAT_ID":60512,"ELEMENT_SET_NO":999,"REV_AT_EPOCH":10723,"BSTAR":0.00018106,"MEAN_MOTION_DOT":0.00007808,"MEAN_MOTION_DDOT":0},{"OBJECT_NAME":"FLOCK 4BE-27","OBJECT_ID":"2024-149AX","EPOCH":"2026-07-18T18:02:22.636032","CLASSIFICATION_TYPE":"U","MEAN_MOTION":15.34953713,"ECCENTRICITY":0.0004337,"INCLINATION":97.3817,"RA_OF_ASC_NODE":281.6281,"ARG_OF_PERICENTER":170.4642,"MEAN_ANOMALY":189.6685,"EPHEMERIS_TYPE":0,"NORAD_CAT_ID":60513,"ELEMENT_SET_NO":999,"REV_AT_EPOCH":10698,"BSTAR":0.00014311,"MEAN_MOTION_DOT":0.00004771,"MEAN_MOTION_DDOT":0},{"OBJECT_NAME":"FLOCK 4BE-9","OBJECT_ID":"2024-149AY","EPOCH":"2026-07-18T18:33:23.497632","CLASSIFICATION_TYPE":"U","MEAN_MOTION":15.41689556,"ECCENTRICITY":0.0003959,"INCLINATION":97.3783,"RA_OF_ASC_NODE":284.3704,"ARG_OF_PERICENTER":161.4778,"MEAN_ANOMALY":198.6614,"EPHEMERIS_TYPE":0,"NORAD_CAT_ID":60514,"ELEMENT_SET_NO":999,"REV_AT_EPOCH":10718,"BSTAR":0.00026013,"MEAN_MOTION_DOT":0.00010892,"MEAN_MOTION_DDOT":0},{"OBJECT_NAME":"FLOCK 4BE-6","OBJECT_ID":"2024-149BA","EPOCH":"2026-07-18T18:18:20.215872","CLASSIFICATION_TYPE":"U","MEAN_MOTION":15.40376578,"ECCENTRICITY":0.0004647,"INCLINATION":97.378,"RA_OF_ASC_NODE":283.6565,"ARG_OF_PERICENTER":162.6316,"MEAN_ANOMALY":197.509,"EPHEMERIS_TYPE":0,"NORAD_CAT_ID":60516,"ELEMENT_SET_NO":999,"REV_AT_EPOCH":10713,"BSTAR":0.00019575,"MEAN_MOTION_DOT":0.00007824,"MEAN_MOTION_DDOT":0},{"OBJECT_NAME":"FLOCK 4BE-14","OBJECT_ID":"2024-149BB","EPOCH":"2026-07-18T18:44:37.370112","CLASSIFICATION_TYPE":"U","MEAN_MOTION":15.41925722,"ECCENTRICITY":0.0005685,"INCLINATION":97.3685,"RA_OF_ASC_NODE":283.8422,"ARG_OF_PERICENTER":165.2975,"MEAN_ANOMALY":194.8439,"EPHEMERIS_TYPE":0,"NORAD_CAT_ID":60517,"ELEMENT_SET_NO":999,"REV_AT_EPOCH":10719,"BSTAR":0.00022445,"MEAN_MOTION_DOT":0.00009462,"MEAN_MOTION_DDOT":0},{"OBJECT_NAME":"FLOCK 4BE-1","OBJECT_ID":"2024-149BC","EPOCH":"2026-07-18T18:19:26.495904","CLASSIFICATION_TYPE":"U","MEAN_MOTION":15.43586903,"ECCENTRICITY":0.0005325,"INCLINATION":97.3771,"RA_OF_ASC_NODE":285.2168,"ARG_OF_PERICENTER":165.2082,"MEAN_ANOMALY":194.9322,"EPHEMERIS_TYPE":0,"NORAD_CAT_ID":60518,"ELEMENT_SET_NO":999,"REV_AT_EPOCH":10724,"BSTAR":0.00021441,"MEAN_MOTION_DOT":0.00009553,"MEAN_MOTION_DDOT":0},{"OBJECT_NAME":"FLOCK 4BE-28","OBJECT_ID":"2024-149BD","EPOCH":"2026-07-18T19:00:33.455232","CLASSIFICATION_TYPE":"U","MEAN_MOTION":15.46484379,"ECCENTRICITY":0.0005497,"INCLINATION":97.3738,"RA_OF_ASC_NODE":286.075,"ARG_OF_PERICENTER":165.0522,"MEAN_ANOMALY":195.0891,"EPHEMERIS_TYPE":0,"NORAD_CAT_ID":60519,"ELEMENT_SET_NO":999,"REV_AT_EPOCH":10732,"BSTAR":0.00053211,"MEAN_MOTION_DOT":0.00026366,"MEAN_MOTION_DDOT":0},{"OBJECT_NAME":"FLOCK 4BE-5","OBJECT_ID":"2024-149CV","EPOCH":"2026-07-18T18:52:15.048192","CLASSIFICATION_TYPE":"U","MEAN_MOTION":15.4111091,"ECCENTRICITY":0.0004318,"INCLINATION":97.3835,"RA_OF_ASC_NODE":284.1086,"ARG_OF_PERICENTER":161.4219,"MEAN_ANOMALY":198.7186,"EPHEMERIS_TYPE":0,"NORAD_CAT_ID":60559,"ELEMENT_SET_NO":999,"REV_AT_EPOCH":10714,"BSTAR":0.00022024,"MEAN_MOTION_DOT":0.00009032,"MEAN_MOTION_DDOT":0}]}
