FLOCK 4BE-17            
1 60492U 24149AA  26199.79491615  .00009104  00000+0  22547-3 0  9996
2 60492  97.3762 283.4317 0004554 137.3085 222.8516 15.40637686107123
FLOCK 4BE-22            
1 60494U 24149AC  26199.74777196  .00009628  00000+0  22740-3 0  9990
2 60494  97.3720 283.6272 0004983 144.1008 216.0574 15.42056124107165
FLOCK 4BE-34            
1 60495U 24149AD  26199.76541953  .00008454  00000+0  20021-3 0  9999
2 60495  97.3775 284.4872 0005095 151.7128 208.4397 15.42016111107196
FLOCK 4BE-32            
1 60497U 24149AF  26199.77684472  .00010833  00000+0  24629-3 0  9998
2 60497  97.3710 284.0673 0005217 148.6595 211.4965 15.43162756107206
FLOCK 4BE-11            
1 60501U 24149AK  26199.75503301  .00009738  00000+0  21585-3 0  9993
2 60501  97.3689 284.3052 0005256 148.8353 211.3207 15.43952981107225
FLOCK 4BE-24            
1 60505U 24149AP  26199.80299757  .00011990  00000+0  26315-3 0  9999
2 60505  97.3701 284.6245 0005285 159.1381 201.0084 15.44188823107247
FLOCK 4BE-29            
1 60509U 24149AT  26199.79061455  .00025598  00000+0  53151-3 0  9990
2 60509  97.3804 286.1681 0003838 167.5223 192.6121 15.45666248107291
FLOCK 4BE-2             
1 60511U 24149AV  26199.79438580  .00041769  00000+0  59512-3 0  9995
2 60511  97.3817 288.0752 0005386 163.1657 196.9778 15.56201399107414
FLOCK 4BE-13            
1 60512U 24149AW  26199.75264541  .00007808  00000+0  18106-3 0  9996
2 60512  97.3710 284.5088 0005340 145.6324 214.5270 15.42675398107239
FLOCK 4BE-27            
1 60513U 24149AX  26199.75165088  .00004771  00000+0  14311-3 0  9993
2 60513  97.3817 281.6281 0004337 170.4642 189.6685 15.34953713106989
FLOCK 4BE-9             
1 60514U 24149AY  26199.77318863  .00010892  00000+0  26013-3 0  9990
2 60514  97.3783 284.3704 0003959 161.4778 198.6614 15.41689556107185
FLOCK 4BE-6             
1 60516U 24149BA  26199.76273398  .00007824  00000+0  19575-3 0  9990
2 60516  97.3780 283.6565 0004647 162.6316 197.5090 15.40376578107134
FLOCK 4BE-14            
1 60517U 24149BB  26199.78098808  .00009462  00000+0  22445-3 0  9994
2 60517  97.3685 283.8422 0005685 165.2975 194.8439 15.41925722107191
FLOCK 4BE-1             
1 60518U 24149BC  26199.76350111  .00009553  00000+0  21441-3 0  9997
2 60518  97.3771 285.2168 0005325 165.2082 194.9322 15.43586903107245
FLOCK 4BE-28            
1 60519U 24149BD  26199.79205388  .00026366  00000+0  53211-3 0  9997
2 60519  97.3738 286.0750 0005497 165.0522 195.0891 15.46484379107321
FLOCK 4BE-5             
1 60559U 24149CV  26199.78628528  .00009032  00000+0  22024-3 0  9994
2 60559  97.3835 284.1086 0004318 161.4219 198.7186 15.41110910107147
